NORAD_CAT_ID,OBJECT_NAME,OBJECT_TYPE,EPOCH,MEAN_MOTION,ECCENTRICITY,INCLINATION,RA_OF_ASC_NODE,ARG_OF_PERICENTER,MEAN_ANOMALY,BSTAR,MEAN_MOTION_DOT,MEAN_MOTION_DDOT,TLE_LINE0,TLE_LINE1,TLE_LINE2,SEMIMAJOR_AXIS,PERIOD,APOGEE,PERIGEE,DECAYED
52542.0,STARLINK-3937,PAYLOAD,2024-07-17 13:05:39,15.08833852,0.0001124,53.218,303.2779,82.2061,277.9059,-2.5224e-05,-6.89e-06,0.0,0 STARLINK-3937,1 52542U 22051K   24199.54560137 -.00000689  00000-0 -25224-4 0  9998,2 52542  53.2180 303.2779 0001124  82.2061 277.9059 15.08833852120912,6917.899,95.438,540.542,538.987,0.0
52542.0,STARLINK-3937,PAYLOAD,2024-07-17 14:41:03,15.0883685,0.0001019,53.2175,302.9794,78.0732,282.0374,-1.3013e-05,-4.95e-06,0.0,0 STARLINK-3937,1 52542U 22051K   24199.61184132 -.00000495  00000-0 -13013-4 0  9991,2 52542  53.2175 302.9794 0001019  78.0732 282.0374 15.08836850120851,6917.89,95.438,540.46,539.05,0.0
52542.0,STARLINK-3937,PAYLOAD,2024-07-18 12:56:26,15.08851346,0.000106,53.2165,298.8189,56.1566,303.9527,0.00031694,4.761e-05,0.0,0 STARLINK-3937,1 52542U 22051K   24200.53919842  .00004761  00000-0  31694-3 0  9991,2 52542  53.2165 298.8189 0001060  56.1566 303.9527 15.08851346121063,6917.846,95.437,540.444,538.977,0.0
52542.0,STARLINK-3937,PAYLOAD,2024-07-19 12:47:14,15.08845829,9.98e-05,53.2163,294.3567,73.4357,286.6745,0.00026073,3.865e-05,0.0,0 STARLINK-3937,1 52542U 22051K   24201.53280204  .00003865  00000-0  26073-3 0  9994,2 52542  53.2163 294.3567 0000998  73.4357 286.6745 15.08845829121216,6917.863,95.437,540.418,539.037,0.0
52542.0,STARLINK-3937,PAYLOAD,2024-07-20 12:38:00,15.08849809,0.0001055,53.2173,289.8948,87.1707,272.9406,0.00014874,2.081e-05,0.0,0 STARLINK-3937,1 52542U 22051K   24202.52639844  .00002081  00000-0  14874-3 0  9997,2 52542  53.2173 289.8948 0001055  87.1707 272.9406 15.08849809121297,6917.85,95.437,540.445,538.986,0.0
52542.0,STARLINK-3937,PAYLOAD,2024-07-21 12:28:48,15.08837127,0.0001117,53.2164,285.4351,91.1468,268.9652,3.3347e-05,2.43e-06,0.0,0 STARLINK-3937,1 52542U 22051K   24203.52000644  .00000243  00000-0  33347-4 0  9993,2 52542  53.2164 285.4351 0001117  91.1468 268.9652 15.08837127121518,6917.889,95.438,540.527,538.981,0.0
52542.0,STARLINK-3937,PAYLOAD,2024-07-22 09:08:49,15.08847148,0.000123,53.2168,281.5725,91.8875,268.2258,0.00011496,1.543e-05,0.0,0 STARLINK-3937,1 52542U 22051K   24204.38112428  .00001543  00000-0  11496-3 0  9996,2 52542  53.2168 281.5725 0001230  91.8875 268.2258 15.08847148121574,6917.859,95.437,540.574,538.873,0.0
52542.0,STARLINK-3937,PAYLOAD,2024-07-23 10:34:59,15.08847441,0.0001422,53.217,276.8157,94.4359,265.6796,0.00025665,3.8e-05,0.0,0 STARLINK-3937,1 52542U 22051K   24205.44096408  .00003800  00000-0  25665-3 0  9994,2 52542  53.2170 276.8157 0001422  94.4359 265.6796 15.08847441121802,6917.858,95.437,540.706,538.739,0.0
52542.0,STARLINK-3937,PAYLOAD,2024-07-23 13:45:45,15.08851374,0.0001215,53.2158,276.2184,87.5121,272.601,0.00029626,4.432e-05,0.0,0 STARLINK-3937,1 52542U 22051K   24205.57344170  .00004432  00000-0  29626-3 0  9993,2 52542  53.2158 276.2184 0001215  87.5121 272.6010 15.08851374121753,6917.846,95.437,540.551,538.87,0.0
52542.0,STARLINK-3937,PAYLOAD,2024-07-24 10:25:47,15.08832027,0.0001431,53.2157,272.3526,81.6039,278.5115,-0.00010858,-2.015e-05,0.0,0 STARLINK-3937,1 52542U 22051K   24206.43457441 -.00002015  00000-0 -10858-3 0  9999,2 52542  53.2157 272.3526 0001431  81.6039 278.5115 15.08832027121959,6917.905,95.438,540.76,538.78,0.0
52542.0,STARLINK-3937,PAYLOAD,2024-07-24 13:36:33,15.08834248,0.0001536,53.2167,271.7546,87.6552,272.4616,-6.5642e-05,-1.332e-05,0.0,0 STARLINK-3937,1 52542U 22051K   24206.56705357 -.00001332  00000-0 -65642-4 0  9998,2 52542  53.2167 271.7546 0001536  87.6552 272.4616 15.08834248121908,6917.898,95.438,540.826,538.7,0.0
52542.0,STARLINK-3937,PAYLOAD,2024-07-25 11:51:56,15.08859484,0.0001392,53.2156,267.5926,76.8021,283.3126,0.00025684,3.804e-05,0.0,0 STARLINK-3937,1 52542U 22051K   24207.49440185  .00003804  00000-0  25684-3 0  9991,2 52542  53.2156 267.5926 0001392  76.8021 283.3126 15.08859484122112,6917.821,95.436,540.649,538.723,0.0
52542.0,STARLINK-3937,PAYLOAD,2024-07-26 03:45:48,15.08845695,0.0001285,53.2144,264.6159,113.2217,246.8911,0.0002127,3.099e-05,0.0,0 STARLINK-3937,1 52542U 22051K   24208.15680736  .00003099  00000-0  21270-3 0  9996,2 52542  53.2144 264.6159 0001285 113.2217 246.8911 15.08845695122215,6917.863,95.437,540.617,538.839,0.0
52542.0,STARLINK-3937,PAYLOAD,2024-07-26 11:42:43,15.08845506,0.0001523,53.2153,263.1313,93.521,266.5957,0.00017661,2.524e-05,0.0,0 STARLINK-3937,1 52542U 22051K   24208.48800679  .00002524  00000-0  17661-3 0  9993,2 52542  53.2153 263.1313 0001523  93.5210 266.5957 15.08845506122196,6917.864,95.437,540.782,538.675,0.0
52542.0,STARLINK-3937,PAYLOAD,2024-07-26 21:15:02,15.08846359,0.0001336,53.2138,261.3473,93.3603,266.7542,0.00010782,1.429e-05,0.0,0 STARLINK-3937,1 52542U 22051K   24208.88544495  .00001429  00000-0  10782-3 0  9998,2 52542  53.2138 261.3473 0001336  93.3603 266.7542 15.08846359122258,6917.861,95.437,540.65,538.802,0.0
52542.0,STARLINK-3937,PAYLOAD,2024-07-27 06:47:20,15.08855205,0.0001419,53.215,259.5622,94.2445,265.871,-0.00014434,-2.585e-05,0.0,0 STARLINK-3937,1 52542U 22051K   24209.28287944 -.00002585  00000-0 -14434-3 0  9990,2 52542  53.2150 259.5622 0001419  94.2445 265.8710 15.08855205122317,6917.834,95.437,540.681,538.717,0.0
52542.0,STARLINK-3937,PAYLOAD,2024-07-27 09:58:07,15.08848805,0.0001547,53.215,258.9672,100.0678,260.0488,5.1827e-05,5.37e-06,0.0,0 STARLINK-3937,1 52542U 22051K   24209.41536141  .00000537  00000-0  51827-4 0  9992,2 52542  53.2150 258.9672 0001547 100.0678 260.0488 15.08848805122408,6917.853,95.437,540.789,538.648,0.0
52542.0,STARLINK-3937,PAYLOAD,2024-07-27 13:08:53,15.08852733,0.0001447,53.2145,258.3725,96.0287,264.087,-6.2834e-06,-3.88e-06,0.0,0 STARLINK-3937,1 52542U 22051K   24209.54783856 -.00000388  00000-0 -62834-5 0  9990,2 52542  53.2145 258.3725 0001447  96.0287 264.0870 15.08852733122352,6917.841,95.437,540.707,538.705,0.0
52542.0,STARLINK-3937,PAYLOAD,2024-07-28 08:13:31,15.08835239,0.0001581,53.2153,254.8011,108.6961,251.4203,-4.5987e-06,-3.61e-06,0.0,0 STARLINK-3937,1 52542U 22051K   24210.34272978 -.00000361  00000-0 -45987-5 0  9999,2 52542  53.2153 254.8011 0001581 108.6961 251.4203 15.08835239122541,6917.895,95.438,540.854,538.666,0.0
52542.0,STARLINK-3937,PAYLOAD,2024-07-29 09:39:42,15.08839258,0.0001459,53.2156,250.0482,84.9103,275.2056,-3.415e-06,-3.42e-06,0.0,0 STARLINK-3937,1 52542U 22051K   24211.40257123 -.00000342  00000-0 -34150-5 0  9991,2 52542  53.2156 250.0482 0001459  84.9103 275.2056 15.08839258122705,6917.883,95.438,540.757,538.738,0.0
52542.0,STARLINK-3937,PAYLOAD,2024-07-30 09:30:29,15.08837558,0.0001444,53.2156,245.589,94.0321,266.0836,0.00012582,1.715e-05,0.0,0 STARLINK-3937,1 52542U 22051K   24212.39617270  .00001715  00000-0  12582-3 0  9999,2 52542  53.2156 245.5890 0001444  94.0321 266.0836 15.08837558122788,6917.888,95.438,540.752,538.754,0.0
52542.0,STARLINK-3937,PAYLOAD,2024-07-30 19:02:47,15.0884108,0.0001446,53.2156,243.8045,92.9666,267.1491,0.00014561,2.03e-05,0.0,0 STARLINK-3937,1 52542U 22051K   24212.79361093  .00002030  00000-0  14561-3 0  9992,2 52542  53.2156 243.8045 0001446  92.9666 267.1491 15.08841080122911,6917.877,95.437,540.742,538.742,0.0
52542.0,STARLINK-3937,PAYLOAD,2024-07-31 09:21:15,15.088467,0.0001454,53.2156,241.128,92.6248,267.4911,0.00014197,1.973e-05,0.0,0 STARLINK-3937,1 52542U 22051K   24213.38976801  .00001973  00000-0  14197-3 0  9997,2 52542  53.2156 241.1280 0001454  92.6248 267.4911 15.08846700122931,6917.86,95.437,540.731,538.719,0.0
52542.0,STARLINK-3937,PAYLOAD,2024-07-31 18:53:34,15.08843003,0.0001406,53.2152,239.3421,83.029,277.0862,0.00010008,1.305e-05,0.0,0 STARLINK-3937,1 52542U 22051K   24213.78721056  .00001305  00000-0  10008-3 0  9997,2 52542  53.2152 239.3421 0001406  83.0290 277.0862 15.08843003122992,6917.871,95.437,540.709,538.764,0.0
52542.0,STARLINK-3937,PAYLOAD,2024-08-01 10:47:26,15.08839657,0.0001493,53.2157,236.3688,81.3127,278.8034,9.929e-06,-1.3e-06,0.0,0 STARLINK-3937,1 52542U 22051K   24214.44961564 -.00000130  00000-0  99290-5 0  9999,2 52542  53.2157 236.3688 0001493  81.3127 278.8034 15.08839657123165,6917.881,95.438,540.779,538.714,0.0
52542.0,STARLINK-3937,PAYLOAD,2024-08-02 09:02:50,15.08845775,0.0001499,53.2155,232.2074,81.8669,278.2493,4.7848e-05,4.74e-06,0.0,0 STARLINK-3937,1 52542U 22051K   24215.37697034  .00000474  00000-0  47848-4 0  9991,2 52542  53.2155 232.2074 0001499  81.8669 278.2493 15.08845775123238,6917.863,95.437,540.765,538.691,0.0
52542.0,STARLINK-3937,PAYLOAD,2024-08-02 18:35:09,15.08842722,0.0001477,53.2154,230.4224,82.0037,278.1123,3.3845e-05,2.51e-06,0.0,0 STARLINK-3937,1 52542U 22051K   24215.77441199  .00000251  00000-0  33845-4 0  9999,2 52542  53.2154 230.4224 0001477  82.0037 278.1123 15.08842722123364,6917.872,95.437,540.759,538.715,0.0
52542.0,STARLINK-3937,PAYLOAD,2024-08-03 07:18:14,15.08837444,0.0001432,53.215,228.0423,85.9898,274.1258,0.00011772,1.586e-05,0.0,0 STARLINK-3937,1 52542U 22051K   24216.30433357  .00001586  00000-0  11772-3 0  9992,2 52542  53.2150 228.0423 0001432  85.9898 274.1258 15.08837444123373,6917.888,95.438,540.744,538.763,0.0
52542.0,STARLINK-3937,PAYLOAD,2024-08-03 18:25:56,15.08837741,0.0001407,53.2151,225.9602,87.5766,272.5387,5.1687e-05,5.35e-06,0.0,0 STARLINK-3937,1 52542U 22051K   24216.76801561  .00000535  00000-0  51687-4 0  9991,2 52542  53.2151 225.9602 0001407  87.5766 272.5387 15.08837741123514,6917.887,95.438,540.726,538.779,0.0
52542.0,STARLINK-3937,PAYLOAD,2024-08-04 07:09:01,15.08839171,0.0001434,53.215,223.5809,88.273,271.8426,1.19e-05,-9.9e-07,0.0,0 STARLINK-3937,1 52542U 22051K   24217.29793596 -.00000099  00000-0  11900-4 0  9998,2 52542  53.2150 223.5809 0001434  88.2730 271.8426 15.08839171123521,6917.883,95.438,540.74,538.756,0.0
